OBJECT_NAME,OBJECT_ID,EPOCH,MEAN_MOTION,ECCENTRICITY,INCLINATION,RA_OF_ASC_NODE,ARG_OF_PERICENTER,MEAN_ANOMALY,EPHEMERIS_TYPE,CLASSIFICATION_TYPE,NORAD_CAT_ID,ELEMENT_SET_NO,REV_AT_EPOCH,BSTAR,MEAN_MOTION_DOT,MEAN_MOTION_DDOT
HAWK-5A,2022-057AB,2026-06-17T21:10:26.870016,15.51414116,.0005552,97.6610,327.7741,76.7280,283.4590,0,U,52757,999,22645,.27200905E-3,.15942E-3,0
HAWK-6B,2023-011A,2026-06-17T21:42:22.440096,15.22939266,.00022542,40.4999,347.8886,5.5255,354.5579,0,U,55324,999,18795,.17203129E-3,.3929E-4,0
HAWK-6C,2023-011C,2026-06-17T20:06:59.488128,15.22935258,.00031946,40.4990,345.1140,354.0294,6.0477,0,U,55326,999,18795,.1581646E-3,.3596E-4,0
HAWK-6A,2023-011D,2026-06-17T20:07:04.127808,15.22936667,.00029036,40.5001,346.7379,350.3585,9.7168,0,U,55327,999,18795,.17065612E-3,.3896E-4,0
HAWK-7A,2023-054P,2026-06-17T18:22:20.707680,15.27365903,.00043031,97.2699,56.0880,56.2484,303.9165,0,U,56191,999,17711,.17333934E-3,.4573E-4,0
HAWK-7B,2023-054R,2026-06-17T18:22:13.533024,15.27363946,.00037159,97.2724,54.3521,67.7987,292.3647,0,U,56193,999,17711,.17625397E-3,.4651E-4,0
HAWK-7C,2023-054Y,2026-06-17T18:22:03.870912,15.27365535,.00036657,97.2702,55.1207,59.3214,300.8386,0,U,56200,999,17711,.17415779E-3,.4595E-4,0
